[{"OBJECT_NAME":"STARLINK-37013","OBJECT_ID":"2026-049W","EPOCH":"2026-03-24T06:00:02.000160","MEAN_MOTION":15.86307407,"ECCENTRICITY":0.00016234,"INCLINATION":97.2746,"RA_OF_ASC_NODE":103.2053,"ARG_OF_PERICENTER":88.2014,"MEAN_ANOMALY":139.3289,"EPHEMERIS_TYPE":0,"CLASSIFICATION_TYPE":"U","NORAD_CAT_ID":68162,"ELEMENT_SET_NO":999,"REV_AT_EPOCH":296,"BSTAR":-0.0096215141,"MEAN_MOTION_DOT":-0.02065942,"MEAN_MOTION_DDOT":0},{"OBJECT_NAME":"STARLINK-36958","OBJECT_ID":"2026-049X","EPOCH":"2026-03-24T06:00:02.000160","MEAN_MOTION":15.86114334,"ECCENTRICITY":0.00014818,"INCLINATION":97.275,"RA_OF_ASC_NODE":103.2025,"ARG_OF_PERICENTER":89.8223,"MEAN_ANOMALY":129.8951,"EPHEMERIS_TYPE":0,"CLASSIFICATION_TYPE":"U","NORAD_CAT_ID":68163,"ELEMENT_SET_NO":999,"REV_AT_EPOCH":296,"BSTAR":-0.0096431862,"MEAN_MOTION_DOT":-0.02052977,"MEAN_MOTION_DDOT":0},{"OBJECT_NAME":"STARLINK-37002","OBJECT_ID":"2026-049Y","EPOCH":"2026-03-24T06:00:02.000160","MEAN_MOTION":15.86052621,"ECCENTRICITY":0.00015863,"INCLINATION":97.2756,"RA_OF_ASC_NODE":103.2006,"ARG_OF_PERICENTER":94.7682,"MEAN_ANOMALY":120.8837,"EPHEMERIS_TYPE":0,"CLASSIFICATION_TYPE":"U","NORAD_CAT_ID":68164,"ELEMENT_SET_NO":999,"REV_AT_EPOCH":296,"BSTAR":-0.0096459701,"MEAN_MOTION_DOT":-0.02048278,"MEAN_MOTION_DDOT":0},{"OBJECT_NAME":"STARLINK-36971","OBJECT_ID":"2026-049Z","EPOCH":"2026-03-24T06:00:02.000160","MEAN_MOTION":15.86231868,"ECCENTRICITY":0.00015678,"INCLINATION":97.2746,"RA_OF_ASC_NODE":103.2042,"ARG_OF_PERICENTER":94.1249,"MEAN_ANOMALY":129.4287,"EPHEMERIS_TYPE":0,"CLASSIFICATION_TYPE":"U","NORAD_CAT_ID":68165,"ELEMENT_SET_NO":999,"REV_AT_EPOCH":296,"BSTAR":-0.009667664,"MEAN_MOTION_DOT":-0.02067794,"MEAN_MOTION_DDOT":0},{"OBJECT_NAME":"STARLINK-36273","OBJECT_ID":"2026-049AA","EPOCH":"2026-03-24T06:00:02.000160","MEAN_MOTION":15.86415147,"ECCENTRICITY":0.00015703,"INCLINATION":97.2747,"RA_OF_ASC_NODE":103.2077,"ARG_OF_PERICENTER":94.1213,"MEAN_ANOMALY":137.2578,"EPHEMERIS_TYPE":0,"CLASSIFICATION_TYPE":"U","NORAD_CAT_ID":68166,"ELEMENT_SET_NO":999,"REV_AT_EPOCH":297,"BSTAR":-0.0095941796,"MEAN_MOTION_DOT":-0.02070224,"MEAN_MOTION_DDOT":0},{"OBJECT_NAME":"STARLINK-36969","OBJECT_ID":"2026-050A","EPOCH":"2026-03-24T06:00:02.000160","MEAN_MOTION":15.80892535,"ECCENTRICITY":6.681e-5,"INCLINATION":53.1595,"RA_OF_ASC_NODE":208.8697,"ARG_OF_PERICENTER":80.439,"MEAN_ANOMALY":37.0585,"EPHEMERIS_TYPE":0,"CLASSIFICATION_TYPE":"U","NORAD_CAT_ID":68167,"ELEMENT_SET_NO":999,"REV_AT_EPOCH":278,"BSTAR":-0.00014734696,"MEAN_MOTION_DOT":-0.00029705,"MEAN_MOTION_DDOT":0},{"OBJECT_NAME":"STARLINK-36984","OBJECT_ID":"2026-050B","EPOCH":"2026-03-24T06:00:02.000160","MEAN_MOTION":15.80886057,"ECCENTRICITY":0.00011974,"INCLINATION":53.1597,"RA_OF_ASC_NODE":208.8611,"ARG_OF_PERICENTER":72.3767,"MEAN_ANOMALY":49.3886,"EPHEMERIS_TYPE":0,"CLASSIFICATION_TYPE":"U","NORAD_CAT_ID":68168,"ELEMENT_SET_NO":999,"REV_AT_EPOCH":278,"BSTAR":6.4581227e-5,"MEAN_MOTION_DOT":0.00012072,"MEAN_MOTION_DDOT":0},{"OBJECT_NAME":"STARLINK-37077","OBJECT_ID":"2026-050C","EPOCH":"2026-03-24T06:00:02.000160","MEAN_MOTION":15.80883025,"ECCENTRICITY":0.00010759,"INCLINATION":53.1596,"RA_OF_ASC_NODE":208.852,"ARG_OF_PERICENTER":115.3465,"MEAN_ANOMALY":10.7047,"EPHEMERIS_TYPE":0,"CLASSIFICATION_TYPE":"U","NORAD_CAT_ID":68169,"ELEMENT_SET_NO":999,"REV_AT_EPOCH":278,"BSTAR":-4.8449591e-5,"MEAN_MOTION_DOT":-0.00010254,"MEAN_MOTION_DDOT":0},{"OBJECT_NAME":"STARLINK-37003","OBJECT_ID":"2026-050D","EPOCH":"2026-03-24T06:00:02.000160","MEAN_MOTION":15.80895118,"ECCENTRICITY":5.255e-5,"INCLINATION":53.1596,"RA_OF_ASC_NODE":208.8431,"ARG_OF_PERICENTER":124.8055,"MEAN_ANOMALY":5.5178,"EPHEMERIS_TYPE":0,"CLASSIFICATION_TYPE":"U","NORAD_CAT_ID":68170,"ELEMENT_SET_NO":999,"REV_AT_EPOCH":278,"BSTAR":-0.00019209458,"MEAN_MOTION_DOT":-0.00038479,"MEAN_MOTION_DDOT":0},{"OBJECT_NAME":"STARLINK-37034","OBJECT_ID":"2026-050E","EPOCH":"2026-03-24T06:00:02.000160","MEAN_MOTION":15.80874559,"ECCENTRICITY":0.00012273,"INCLINATION":53.1597,"RA_OF_ASC_NODE":208.8343,"ARG_OF_PERICENTER":87.8069,"MEAN_ANOMALY":46.7866,"EPHEMERIS_TYPE":0,"CLASSIFICATION_TYPE":"U","NORAD_CAT_ID":68171,"ELEMENT_SET_NO":999,"REV_AT_EPOCH":278,"BSTAR":8.5637353e-5,"MEAN_MOTION_DOT":0.00016236,"MEAN_MOTION_DDOT":0},{"OBJECT_NAME":"STARLINK-37031","OBJECT_ID":"2026-050F","EPOCH":"2026-03-24T06:00:02.000160","MEAN_MOTION":15.8088213,"ECCENTRICITY":0.00011214,"INCLINATION":53.1598,"RA_OF_ASC_NODE":208.8252,"ARG_OF_PERICENTER":114.1975,"MEAN_ANOMALY":24.6732,"EPHEMERIS_TYPE":0,"CLASSIFICATION_TYPE":"U","NORAD_CAT_ID":68172,"ELEMENT_SET_NO":999,"REV_AT_EPOCH":278,"BSTAR":-8.5672075e-5,"MEAN_MOTION_DOT":-0.0001758,"MEAN_MOTION_DDOT":0},{"OBJECT_NAME":"STARLINK-37076","OBJECT_ID":"2026-050G","EPOCH":"2026-03-24T06:00:02.000160","MEAN_MOTION":15.80929959,"ECCENTRICITY":0.00011622,"INCLINATION":53.1599,"RA_OF_ASC_NODE":208.8169,"ARG_OF_PERICENTER":90.3832,"MEAN_ANOMALY":52.7712,"EPHEMERIS_TYPE":0,"CLASSIFICATION_TYPE":"U","NORAD_CAT_ID":68173,"ELEMENT_SET_NO":999,"REV_AT_EPOCH":278,"BSTAR":-0.00027923534,"MEAN_MOTION_DOT":-0.00055602,"MEAN_MOTION_DDOT":0},{"OBJECT_NAME":"STARLINK-37078","OBJECT_ID":"2026-050H","EPOCH":"2026-03-24T06:00:02.000160","MEAN_MOTION":15.80850939,"ECCENTRICITY":0.00010572,"INCLINATION":53.16,"RA_OF_ASC_NODE":208.8082,"ARG_OF_PERICENTER":96.8331,"MEAN_ANOMALY":50.5874,"EPHEMERIS_TYPE":0,"CLASSIFICATION_TYPE":"U","NORAD_CAT_ID":68174,"ELEMENT_SET_NO":999,"REV_AT_EPOCH":278,"BSTAR":0.00018245941,"MEAN_MOTION_DOT":0.00035424,"MEAN_MOTION_DDOT":0},{"OBJECT_NAME":"STARLINK-36886","OBJECT_ID":"2026-050J","EPOCH":"2026-03-24T06:00:02.000160","MEAN_MOTION":15.80893162,"ECCENTRICITY":0.00012172,"INCLINATION":53.1599,"RA_OF_ASC_NODE":208.7988,"ARG_OF_PERICENTER":85.3246,"MEAN_ANOMALY":66.3587,"EPHEMERIS_TYPE":0,"CLASSIFICATION_TYPE":"U","NORAD_CAT_ID":68175,"ELEMENT_SET_NO":999,"REV_AT_EPOCH":278,"BSTAR":-0.00030661444,"MEAN_MOTION_DOT":-0.00060847,"MEAN_MOTION_DDOT":0},{"OBJECT_NAME":"STARLINK-36905","OBJECT_ID":"2026-050K","EPOCH":"2026-03-24T06:00:02.000160","MEAN_MOTION":15.80911051,"ECCENTRICITY":6.203e-5,"INCLINATION":53.1598,"RA_OF_ASC_NODE":208.7909,"ARG_OF_PERICENTER":43.9701,"MEAN_ANOMALY":111.9256,"EPHEMERIS_TYPE":0,"CLASSIFICATION_TYPE":"U","NORAD_CAT_ID":68176,"ELEMENT_SET_NO":999,"REV_AT_EPOCH":278,"BSTAR":-0.00013964266,"MEAN_MOTION_DOT":-0.00028216,"MEAN_MOTION_DDOT":0},{"OBJECT_NAME":"STARLINK-36668","OBJECT_ID":"2026-050L","EPOCH":"2026-03-24T06:00:02.000160","MEAN_MOTION":15.80853932,"ECCENTRICITY":0.00010899,"INCLINATION":53.16,"RA_OF_ASC_NODE":208.7812,"ARG_OF_PERICENTER":87.8378,"MEAN_ANOMALY":72.3824,"EPHEMERIS_TYPE":0,"CLASSIFICATION_TYPE":"U","NORAD_CAT_ID":68177,"ELEMENT_SET_NO":999,"REV_AT_EPOCH":278,"BSTAR":0.0002038031,"MEAN_MOTION_DOT":0.00039675,"MEAN_MOTION_DDOT":0}]
