STARLINK-37013          
1 68162U 26049W   26083.25002315 -.02065942  00000+0 -96215-2 0  9995
2 68162  97.2746 103.2053 0001623  88.2014 139.3289 15.86307407  2962
STARLINK-36958          
1 68163U 26049X   26083.25002315 -.02052977  00000+0 -96432-2 0  9991
2 68163  97.2750 103.2025 0001481  89.8223 129.8951 15.86114334  2963
STARLINK-37002          
1 68164U 26049Y   26083.25002315 -.02048278  00000+0 -96460-2 0  9992
2 68164  97.2756 103.2006 0001586  94.7682 120.8837 15.86052621  2963
STARLINK-36971          
1 68165U 26049Z   26083.25002315 -.02067794  00000+0 -96677-2 0  9997
2 68165  97.2746 103.2042 0001567  94.1249 129.4287 15.86231868  2961
STARLINK-36273          
1 68166U 26049AA  26083.25002315 -.02070224  00000+0 -95942-2 0  9994
2 68166  97.2747 103.2077 0001570  94.1213 137.2578 15.86415147  2971
STARLINK-36969          
1 68167U 26050A   26083.25002315 -.00029705  00000+0 -14735-3 0  9995
2 68167  53.1595 208.8697 0000668  80.4390  37.0585 15.80892535  2783
STARLINK-36984          
1 68168U 26050B   26083.25002315  .00012072  00000+0  64581-4 0  9998
2 68168  53.1597 208.8611 0001197  72.3767  49.3886 15.80886057  2780
STARLINK-37077          
1 68169U 26050C   26083.25002315 -.00010254  00000+0 -48450-4 0  9998
2 68169  53.1596 208.8520 0001075 115.3465  10.7047 15.80883025  2780
STARLINK-37003          
1 68170U 26050D   26083.25002315 -.00038479  00000+0 -19209-3 0  9998
2 68170  53.1596 208.8431 0000525 124.8055   5.5178 15.80895118  2785
STARLINK-37034          
1 68171U 26050E   26083.25002315  .00016236  00000+0  85637-4 0  9993
2 68171  53.1597 208.8343 0001227  87.8069  46.7866 15.80874559  2789
STARLINK-37031          
1 68172U 26050F   26083.25002315 -.00017580  00000+0 -85672-4 0  9998
2 68172  53.1598 208.8252 0001121 114.1975  24.6732 15.80882130  2784
STARLINK-37076          
1 68173U 26050G   26083.25002315 -.00055602  00000+0 -27924-3 0  9991
2 68173  53.1599 208.8169 0001162  90.3832  52.7712 15.80929959  2786
STARLINK-37078          
1 68174U 26050H   26083.25002315  .00035424  00000+0  18246-3 0  9997
2 68174  53.1600 208.8082 0001057  96.8331  50.5874 15.80850939  2788
STARLINK-36886          
1 68175U 26050J   26083.25002315 -.00060847  00000+0 -30661-3 0  9992
2 68175  53.1599 208.7988 0001217  85.3246  66.3587 15.80893162  2787
STARLINK-36905          
1 68176U 26050K   26083.25002315 -.00028216  00000+0 -13964-3 0  9994
2 68176  53.1598 208.7909 0000620  43.9701 111.9256 15.80911051  2781
STARLINK-36668          
1 68177U 26050L   26083.25002315  .00039675  00000+0  20380-3 0  9994
2 68177  53.1600 208.7812 0001089  87.8378  72.3824 15.80853932  2780
